{"type": "FeatureCollection", "features": [ {"type": "Feature", "properties": {"norad_id": 34400, "name": "COSMOS 2251 DEB", "group": "cosmos-2251-debris", "lat": 73.25819606719097, "lon": 127.24717047593569, "alt_km": 400.1287424059865, "timestamp": "2025-12-14T03:55:53.182165+00:00", "meta": {"OBJECT_NAME": "COSMOS 2251 DEB", "OBJECT_ID": "1993-036QR", "EPOCH": "2025-12-13T04:20:54.630240", "MEAN_MOTION": 15.53729473, "ECCENTRICITY": 0.00048669, "INCLINATION": 73.9656, "RA_OF_ASC_NODE": 22.3825, "ARG_OF_PERICENTER": 267.2655, "MEAN_ANOMALY": 92.8002, "EPHEMERIS_TYPE": 0, "CLASSIFICATION_TYPE": "U", "NORAD_CAT_ID": 34400, "ELEMENT_SET_NO": 999, "REV_AT_EPOCH": 89981, "BSTAR": 0.0044351652, "MEAN_MOTION_DOT": 0.00295054, "MEAN_MOTION_DDOT": 0}, "tle": {"line1": "1 34400U 93036QR  25347.18118785  .00295054  00000+0  44352-2 0  9996", "line2": "2 34400  73.9656  22.3825 0004866 267.2655  92.8002 15.53729473899810"}}, "geometry": {"type": "Point", "coordinates": [127.24717047593569, 73.25819606719097]}}, {"type": "Feature", "properties": {"norad_id": 34409, "name": "COSMOS 2251 DEB", "group": "cosmos-2251-debris", "lat": -47.947285138297424, "lon": 142.60047234174982, "alt_km": 753.6206982653921, "timestamp": "2025-12-14T03:55:53.182176+00:00", "meta": {"OBJECT_NAME": "COSMOS 2251 DEB", "OBJECT_ID": "1993-036RA", "EPOCH": "2025-12-13T07:40:15.100608", "MEAN_MOTION": 14.58029825, "ECCENTRICITY": 0.00798627, "INCLINATION": 74.0632, "RA_OF_ASC_NODE": 305.736, "ARG_OF_PERICENTER": 19.9065, "MEAN_ANOMALY": 101.8009, "EPHEMERIS_TYPE": 0, "CLASSIFICATION_TYPE": "U", "NORAD_CAT_ID": 34409, "ELEMENT_SET_NO": 999, "REV_AT_EPOCH": 89201, "BSTAR": 0.00041816741, "MEAN_MOTION_DOT": 1.978e-05, "MEAN_MOTION_DDOT": 0}, "tle": {"line1": "1 34409U 93036RA  25347.31961922  .00001978  00000+0  41817-3 0  9993", "line2": "2 34409  74.0632 305.7360 0079862  19.9065 101.8009 14.58029825892013"}}, "geometry": {"type": "Point", "coordinates": [142.60047234174982, -47.947285138297424]}}, {"type": "Feature", "properties": {"norad_id": 34410, "name": "COSMOS 2251 DEB", "group": "cosmos-2251-debris", "lat": -40.231156467707095, "lon": 93.00648566838677, "alt_km": 522.3900215928106, "timestamp": "2025-12-14T03:55:53.182186+00:00", "meta": {"OBJECT_NAME": "COSMOS 2251 DEB", "OBJECT_ID": "1993-036RB", "EPOCH": "2025-12-13T05:30:15.889248", "MEAN_MOTION": 15.190182, "ECCENTRICITY": 0.00214629, "INCLINATION": 73.7353, "RA_OF_ASC_NODE": 260.6978, "ARG_OF_PERICENTER": 102.0887, "MEAN_ANOMALY": 51.7382, "EPHEMERIS_TYPE": 0, "CLASSIFICATION_TYPE": "U", "NORAD_CAT_ID": 34410, "ELEMENT_SET_NO": 999, "REV_AT_EPOCH": 89781, "BSTAR": 0.0039664388, "MEAN_MOTION_DOT": 0.00084505, "MEAN_MOTION_DDOT": 0}, "tle": {"line1": "1 34410U 93036RB  25347.22935057  .00084505  00000+0  39664-2 0  9998", "line2": "2 34410  73.7353 260.6978 0021462 102.0887  51.7382 15.19018200897817"}}, "geometry": {"type": "Point", "coordinates": [93.00648566838677, -40.231156467707095]}}, {"type": "Feature", "properties": {"norad_id": 34412, "name": "COSMOS 2251 DEB", "group": "cosmos-2251-debris", "lat": 22.756306885002612, "lon": -31.131295175562855, "alt_km": 621.603904511936, "timestamp": "2025-12-14T03:55:53.182196+00:00", "meta": {"OBJECT_NAME": "COSMOS 2251 DEB", "OBJECT_ID": "1993-036RD", "EPOCH": "2025-12-13T06:15:24.906816", "MEAN_MOTION": 14.47145618, "ECCENTRICITY": 0.01871847, "INCLINATION": 73.9483, "RA_OF_ASC_NODE": 323.6299, "ARG_OF_PERICENTER": 58.5801, "MEAN_ANOMALY": 303.351, "EPHEMERIS_TYPE": 0, "CLASSIFICATION_TYPE": "U", "NORAD_CAT_ID": 34412, "ELEMENT_SET_NO": 999, "REV_AT_EPOCH": 87658, "BSTAR": 0.0022032383, "MEAN_MOTION_DOT": 9.999e-05, "MEAN_MOTION_DDOT": 0}, "tle": {"line1": "1 34412U 93036RD  25347.26070494  .00009999  00000+0  22032-2 0  9994", "line2": "2 34412  73.9483 323.6299 0187184  58.5801 303.3510 14.47145618876580"}}, "geometry": {"type": "Point", "coordinates": [-31.131295175562855, 22.756306885002612]}}, {"type": "Feature", "properties": {"norad_id": 34413, "name": "COSMOS 2251 DEB", "group": "cosmos-2251-debris", "lat": 60.919693810277906, "lon": -66.71929143064746, "alt_km": 784.3149077186727, "timestamp": "2025-12-14T03:55:53.182207+00:00", "meta": {"OBJECT_NAME": "COSMOS 2251 DEB", "OBJECT_ID": "1993-036RE", "EPOCH": "2025-12-13T04:41:10.628160", "MEAN_MOTION": 14.29105669, "ECCENTRICITY": 0.00908854, "INCLINATION": 74.0312, "RA_OF_ASC_NODE": 264.0504, "ARG_OF_PERICENTER": 340.4866, "MEAN_ANOMALY": 142.8958, "EPHEMERIS_TYPE": 0, "CLASSIFICATION_TYPE": "U", "NORAD_CAT_ID": 34413, "ELEMENT_SET_NO": 999, "REV_AT_EPOCH": 87137, "BSTAR": 0.0023497473, "MEAN_MOTION_DOT": 6.207e-05, "MEAN_MOTION_DDOT": 0}, "tle": {"line1": "1 34413U 93036RE  25347.19526190  .00006207  00000+0  23497-2 0  9991", "line2": "2 34413  74.0312 264.0504 0090885 340.4866 142.8958 14.29105669871372"}}, "geometry": {"type": "Point", "coordinates": [-66.71929143064746, 60.919693810277906]}}, {"type": "Feature", "properties": {"norad_id": 34420, "name": "COSMOS 2251 DEB", "group": "cosmos-2251-debris", "lat": -1.1917164785464014, "lon": 100.86388106695698, "alt_km": 723.7470856939644, "timestamp": "2025-12-14T03:55:53.182216+00:00", "meta": {"OBJECT_NAME": "COSMOS 2251 DEB", "OBJECT_ID": "1993-036RM", "EPOCH": "2025-12-13T02:00:17.407584", "MEAN_MOTION": 14.68300134, "ECCENTRICITY": 0.01066231, "INCLINATION": 74.0335, "RA_OF_ASC_NODE": 103.2938, "ARG_OF_PERICENTER": 224.3556, "MEAN_ANOMALY": 185.8315, "EPHEMERIS_TYPE": 0, "CLASSIFICATION_TYPE": "U", "NORAD_CAT_ID": 34420, "ELEMENT_SET_NO": 999, "REV_AT_EPOCH": 89775, "BSTAR": 0.00039803401, "MEAN_MOTION_DOT": 2.469e-05, "MEAN_MOTION_DDOT": 0}, "tle": {"line1": "1 34420U 93036RM  25347.08353481  .00002469  00000+0  39803-3 0  9993", "line2": "2 34420  74.0335 103.2938 0106623 224.3556 185.8315 14.68300134897755"}}, "geometry": {"type": "Point", "coordinates": [100.86388106695698, -1.1917164785464014]}}, {"type": "Feature", "properties": {"norad_id": 34425, "name": "COSMOS 2251 DEB", "group": "cosmos-2251-debris", "lat": 50.66061202238918, "lon": 72.25092343442842, "alt_km": 691.0904799417358, "timestamp": "2025-12-14T03:55:53.182227+00:00", "meta": {"OBJECT_NAME": "COSMOS 2251 DEB", "OBJECT_ID": "1993-036RS", "EPOCH": "2025-12-13T06:20:20.108832", "MEAN_MOTION": 14.62136205, "ECCENTRICITY": 0.00248097, "INCLINATION": 74.0203, "RA_OF_ASC_NODE": 53.5112, "ARG_OF_PERICENTER": 179.8355, "MEAN_ANOMALY": 180.2824, "EPHEMERIS_TYPE": 0, "CLASSIFICATION_TYPE": "U", "NORAD_CAT_ID": 34425, "ELEMENT_SET_NO": 999, "REV_AT_EPOCH": 88748, "BSTAR": 0.00092984732, "MEAN_MOTION_DOT": 4.669e-05, "MEAN_MOTION_DDOT": 0}, "tle": {"line1": "1 34425U 93036RS  25347.26412163  .00004669  00000+0  92985-3 0  9995", "line2": "2 34425  74.0203  53.5112 0024809 179.8355 180.2824 14.62136205887484"}}, "geometry": {"type": "Point", "coordinates": [72.25092343442842, 50.66061202238918]}}, {"type": "Feature", "properties": {"norad_id": 34429, "name": "COSMOS 2251 DEB", "group": "cosmos-2251-debris", "lat": 19.95674558989768, "lon": -21.07780110131739, "alt_km": 443.64440208074484, "timestamp": "2025-12-14T03:55:53.182238+00:00", "meta": {"OBJECT_NAME": "COSMOS 2251 DEB", "OBJECT_ID": "1993-036RW", "EPOCH": "2025-12-12T22:10:54.371424", "MEAN_MOTION": 15.4171588, "ECCENTRICITY": 0.00075189, "INCLINATION": 73.9699, "RA_OF_ASC_NODE": 167.6115, "ARG_OF_PERICENTER": 5.8726, "MEAN_ANOMALY": 114.8984, "EPHEMERIS_TYPE": 0, "CLASSIFICATION_TYPE": "U", "NORAD_CAT_ID": 34429, "ELEMENT_SET_NO": 999, "REV_AT_EPOCH": 89451, "BSTAR": 0.006275983, "MEAN_MOTION_DOT": 0.00275022, "MEAN_MOTION_DDOT": 0}, "tle": {"line1": "1 34429U 93036RW  25346.92424041  .00275022  00000+0  62760-2 0  9999", "line2": "2 34429  73.9699 167.6115 0007518   5.8726 114.8984 15.41715880894515"}}, "geometry": {"type": "Point", "coordinates": [-21.07780110131739, 19.95674558989768]}}, {"type": "Feature", "properties": {"norad_id": 34430, "name": "COSMOS 2251 DEB", "group": "cosmos-2251-debris", "lat": 71.6097224324471, "lon": 0.05975703975110299, "alt_km": 737.9773576606458, "timestamp": "2025-12-14T03:55:53.182248+00:00", "meta": {"OBJECT_NAME": "COSMOS 2251 DEB", "OBJECT_ID": "1993-036RX", "EPOCH": "2025-12-13T07:32:54.360384", "MEAN_MOTION": 14.39636678, "ECCENTRICITY": 0.00603665, "INCLINATION": 74.0522, "RA_OF_ASC_NODE": 302.3016, "ARG_OF_PERICENTER": 11.7984, "MEAN_ANOMALY": 348.4568, "EPHEMERIS_TYPE": 0, "CLASSIFICATION_TYPE": "U", "NORAD_CAT_ID": 34430, "ELEMENT_SET_NO": 999, "REV_AT_EPOCH": 87963, "BSTAR": 0.00085503332, "MEAN_MOTION_DOT": 2.705e-05, "MEAN_MOTION_DDOT": 0}, "tle": {"line1": "1 34430U 93036RX  25347.31451806  .00002705  00000+0  85503-3 0  9991", "line2": "2 34430  74.0522 302.3016 0060366  11.7984 348.4568 14.39636678879636"}}, "geometry": {"type": "Point", "coordinates": [0.05975703975110299, 71.6097224324471]}}, {"type": "Feature", "properties": {"norad_id": 34431, "name": "COSMOS 2251 DEB", "group": "cosmos-2251-debris", "lat": -66.9746189472352, "lon": 130.4154916074708, "alt_km": 833.2651888341552, "timestamp": "2025-12-14T03:55:53.182259+00:00", "meta": {"OBJECT_NAME": "COSMOS 2251 DEB", "OBJECT_ID": "1993-036RY", "EPOCH": "2025-12-12T22:01:46.667136", "MEAN_MOTION": 14.28774735, "ECCENTRICITY": 0.00682352, "INCLINATION": 74.0746, "RA_OF_ASC_NODE": 174.8773, "ARG_OF_PERICENTER": 160.5126, "MEAN_ANOMALY": 199.8657, "EPHEMERIS_TYPE": 0, "CLASSIFICATION_TYPE": "U", "NORAD_CAT_ID": 34431, "ELEMENT_SET_NO": 999, "REV_AT_EPOCH": 87145, "BSTAR": 0.00098967599, "MEAN_MOTION_DOT": 2.531e-05, "MEAN_MOTION_DDOT": 0}, "tle": {"line1": "1 34431U 93036RY  25346.91790124  .00002531  00000+0  98968-3 0  9992", "line2": "2 34431  74.0746 174.8773 0068235 160.5126 199.8657 14.28774735871455"}}, "geometry": {"type": "Point", "coordinates": [130.4154916074708, -66.9746189472352]}}]}